VCC A                   
1 44428U 98067QN  19337.46322326  .00006094  00000-0  10028-3 0  9996
2 44428  51.6407 239.5777 0002327 340.7795  19.3107 15.53829852 23842
ENTRYSAT                
1 44429U 98067QP  19337.76997742  .00006712  00000-0  10836-3 0  9994
2 44429  51.6401 237.8734 0001882 331.4135  28.6753 15.54172627 23898
VCC C                   
1 44430U 98067QQ  19337.76533927  .00008314  00000-0  13135-3 0  9992
2 44430  51.6403 237.8444 0002076 347.4772  12.6167 15.54411456 22729
VCC B                   
1 44431U 98067QR  19337.46502496  .00006153  00000-0  10118-3 0  9994
2 44431  51.6404 239.5879 0002450 338.4387  21.6500 15.53827027 23782
